[{"OBJECT_NAME":"MORELOS 3","OBJECT_ID":"2015-056A","EPOCH":"2026-03-14T13:06:23.213664","MEAN_MOTION":1.00271888,"ECCENTRICITY":0.00032193,"INCLINATION":3.1161,"RA_OF_ASC_NODE":12.401,"ARG_OF_PERICENTER":358.342,"MEAN_ANOMALY":244.8857,"EPHEMERIS_TYPE":0,"CLASSIFICATION_TYPE":"U","NORAD_CAT_ID":40946,"ELEMENT_SET_NO":999,"REV_AT_EPOCH":3833,"BSTAR":0,"MEAN_MOTION_DOT":-4.1e-7,"MEAN_MOTION_DDOT":0},{"OBJECT_NAME":"APSTAR-9","OBJECT_ID":"2015-059A","EPOCH":"2026-03-13T07:47:51.644256","MEAN_MOTION":1.00268527,"ECCENTRICITY":0.0001259,"INCLINATION":0.0403,"RA_OF_ASC_NODE":7.9304,"ARG_OF_PERICENTER":247.6726,"MEAN_ANOMALY":174.2589,"EPHEMERIS_TYPE":0,"CLASSIFICATION_TYPE":"U","NORAD_CAT_ID":40982,"ELEMENT_SET_NO":999,"REV_AT_EPOCH":3815,"BSTAR":0,"MEAN_MOTION_DOT":-2.67e-6,"MEAN_MOTION_DDOT":0},{"OBJECT_NAME":"TURKSAT 4B","OBJECT_ID":"2015-060A","EPOCH":"2026-03-14T13:52:56.250912","MEAN_MOTION":1.00268533,"ECCENTRICITY":0.00021594,"INCLINATION":0.0237,"RA_OF_ASC_NODE":163.9495,"ARG_OF_PERICENTER":205.7761,"MEAN_ANOMALY":60.7107,"EPHEMERIS_TYPE":0,"CLASSIFICATION_TYPE":"U","NORAD_CAT_ID":40984,"ELEMENT_SET_NO":999,"REV_AT_EPOCH":3814,"BSTAR":0,"MEAN_MOTION_DOT":0,"MEAN_MOTION_DDOT":0},{"OBJECT_NAME":"ZHONGXING-2C","OBJECT_ID":"2015-063A","EPOCH":"2026-03-14T16:00:15.276672","MEAN_MOTION":1.00269387,"ECCENTRICITY":0.00064505,"INCLINATION":0.0305,"RA_OF_ASC_NODE":134.0282,"ARG_OF_PERICENTER":86.8839,"MEAN_ANOMALY":294.8608,"EPHEMERIS_TYPE":0,"CLASSIFICATION_TYPE":"U","NORAD_CAT_ID":41021,"ELEMENT_SET_NO":999,"REV_AT_EPOCH":3803,"BSTAR":0,"MEAN_MOTION_DOT":-3.24e-6,"MEAN_MOTION_DDOT":0},{"OBJECT_NAME":"GSAT-15","OBJECT_ID":"2015-065A","EPOCH":"2026-03-14T16:01:18.370272","MEAN_MOTION":1.00271606,"ECCENTRICITY":0.00015568,"INCLINATION":0.066,"RA_OF_ASC_NODE":269.2519,"ARG_OF_PERICENTER":126.1691,"MEAN_ANOMALY":110.6848,"EPHEMERIS_TYPE":0,"CLASSIFICATION_TYPE":"U","NORAD_CAT_ID":41028,"ELEMENT_SET_NO":999,"REV_AT_EPOCH":3785,"BSTAR":0,"MEAN_MOTION_DOT":-2.59e-6,"MEAN_MOTION_DDOT":0},{"OBJECT_NAME":"BADR-7 (ARABSAT-6B)","OBJECT_ID":"2015-065B","EPOCH":"2026-03-14T13:46:04.408896","MEAN_MOTION":1.00270545,"ECCENTRICITY":0.0003029,"INCLINATION":0.0333,"RA_OF_ASC_NODE":220.5657,"ARG_OF_PERICENTER":35.1115,"MEAN_ANOMALY":149.0135,"EPHEMERIS_TYPE":0,"CLASSIFICATION_TYPE":"U","NORAD_CAT_ID":41029,"ELEMENT_SET_NO":999,"REV_AT_EPOCH":3781,"BSTAR":0,"MEAN_MOTION_DOT":1.44e-6,"MEAN_MOTION_DDOT":0},{"OBJECT_NAME":"LAOSAT 1","OBJECT_ID":"2015-067A","EPOCH":"2026-03-14T14:15:16.607808","MEAN_MOTION":1.00268303,"ECCENTRICITY":0.0001481,"INCLINATION":0.0264,"RA_OF_ASC_NODE":56.3778,"ARG_OF_PERICENTER":268.5522,"MEAN_ANOMALY":189.5579,"EPHEMERIS_TYPE":0,"CLASSIFICATION_TYPE":"U","NORAD_CAT_ID":41034,"ELEMENT_SET_NO":999,"REV_AT_EPOCH":3791,"BSTAR":0,"MEAN_MOTION_DOT":-3.44e-6,"MEAN_MOTION_DDOT":0},{"OBJECT_NAME":"TELSTAR 12V","OBJECT_ID":"2015-068A","EPOCH":"2026-03-14T10:08:59.500032","MEAN_MOTION":1.00271814,"ECCENTRICITY":0.00025647,"INCLINATION":0.0171,"RA_OF_ASC_NODE":137.8627,"ARG_OF_PERICENTER":222.5823,"MEAN_ANOMALY":308.8421,"EPHEMERIS_TYPE":0,"CLASSIFICATION_TYPE":"U","NORAD_CAT_ID":41036,"ELEMENT_SET_NO":999,"REV_AT_EPOCH":3767,"BSTAR":0,"MEAN_MOTION_DOT":-1.2e-6,"MEAN_MOTION_DDOT":0},{"OBJECT_NAME":"ELEKTRO-L 2","OBJECT_ID":"2015-074A","EPOCH":"2026-03-14T08:26:24.338112","MEAN_MOTION":1.00273517,"ECCENTRICITY":0.00028216,"INCLINATION":6.4549,"RA_OF_ASC_NODE":71.684,"ARG_OF_PERICENTER":249.5382,"MEAN_ANOMALY":322.8309,"EPHEMERIS_TYPE":0,"CLASSIFICATION_TYPE":"U","NORAD_CAT_ID":41105,"ELEMENT_SET_NO":999,"REV_AT_EPOCH":3755,"BSTAR":0,"MEAN_MOTION_DOT":-1.15e-6,"MEAN_MOTION_DDOT":0},{"OBJECT_NAME":"COSMOS 2513","OBJECT_ID":"2015-075A","EPOCH":"2026-03-14T19:23:11.354784","MEAN_MOTION":1.00269635,"ECCENTRICITY":0.0002103,"INCLINATION":0.0445,"RA_OF_ASC_NODE":106.0889,"ARG_OF_PERICENTER":263.8819,"MEAN_ANOMALY":173.4757,"EPHEMERIS_TYPE":0,"CLASSIFICATION_TYPE":"U","NORAD_CAT_ID":41121,"ELEMENT_SET_NO":999,"REV_AT_EPOCH":3760,"BSTAR":0,"MEAN_MOTION_DOT":-1.38e-6,"MEAN_MOTION_DDOT":0},{"OBJECT_NAME":"EXPRESS-AMU1","OBJECT_ID":"2015-082A","EPOCH":"2026-03-13T13:51:15.746976","MEAN_MOTION":1.00276226,"ECCENTRICITY":0.00027301,"INCLINATION":0.0186,"RA_OF_ASC_NODE":198.571,"ARG_OF_PERICENTER":142.6695,"MEAN_ANOMALY":73.8989,"EPHEMERIS_TYPE":0,"CLASSIFICATION_TYPE":"U","NORAD_CAT_ID":41191,"ELEMENT_SET_NO":999,"REV_AT_EPOCH":3730,"BSTAR":0,"MEAN_MOTION_DOT":1.55e-6,"MEAN_MOTION_DDOT":0},{"OBJECT_NAME":"GAOFEN-4","OBJECT_ID":"2015-083A","EPOCH":"2026-03-13T12:28:23.064096","MEAN_MOTION":1.00269807,"ECCENTRICITY":0.00039265,"INCLINATION":0.4018,"RA_OF_ASC_NODE":83.7567,"ARG_OF_PERICENTER":77.9435,"MEAN_ANOMALY":302.2136,"EPHEMERIS_TYPE":0,"CLASSIFICATION_TYPE":"U","NORAD_CAT_ID":41194,"ELEMENT_SET_NO":999,"REV_AT_EPOCH":3757,"BSTAR":0,"MEAN_MOTION_DOT":-3.34e-6,"MEAN_MOTION_DDOT":0},{"OBJECT_NAME":"BELINTERSAT-1","OBJECT_ID":"2016-001A","EPOCH":"2026-03-14T13:53:11.226624","MEAN_MOTION":1.00274041,"ECCENTRICITY":0.00014391,"INCLINATION":0.0231,"RA_OF_ASC_NODE":273.7162,"ARG_OF_PERICENTER":75.2915,"MEAN_ANOMALY":82.9621,"EPHEMERIS_TYPE":0,"CLASSIFICATION_TYPE":"U","NORAD_CAT_ID":41238,"ELEMENT_SET_NO":999,"REV_AT_EPOCH":3728,"BSTAR":0,"MEAN_MOTION_DOT":1.06e-6,"MEAN_MOTION_DDOT":0},{"OBJECT_NAME":"IRNSS-1E","OBJECT_ID":"2016-003A","EPOCH":"2026-03-14T09:02:28.379040","MEAN_MOTION":1.00270474,"ECCENTRICITY":0.00173065,"INCLINATION":33.0301,"RA_OF_ASC_NODE":61.1139,"ARG_OF_PERICENTER":189.2923,"MEAN_ANOMALY":168.9567,"EPHEMERIS_TYPE":0,"CLASSIFICATION_TYPE":"U","NORAD_CAT_ID":41241,"ELEMENT_SET_NO":999,"REV_AT_EPOCH":3712,"BSTAR":0,"MEAN_MOTION_DOT":-2.78e-6,"MEAN_MOTION_DDOT":0},{"OBJECT_NAME":"EUTELSAT 9B","OBJECT_ID":"2016-005A","EPOCH":"2026-03-14T13:41:12.376032","MEAN_MOTION":1.00272915,"ECCENTRICITY":0.00041437,"INCLINATION":0.0468,"RA_OF_ASC_NODE":69.417,"ARG_OF_PERICENTER":263.4344,"MEAN_ANOMALY":53.6112,"EPHEMERIS_TYPE":0,"CLASSIFICATION_TYPE":"U","NORAD_CAT_ID":41310,"ELEMENT_SET_NO":999,"REV_AT_EPOCH":3716,"BSTAR":0,"MEAN_MOTION_DOT":6.1e-7,"MEAN_MOTION_DDOT":0},{"OBJECT_NAME":"SES-9","OBJECT_ID":"2016-013A","EPOCH":"2026-03-12T14:21:23.683392","MEAN_MOTION":1.00271324,"ECCENTRICITY":0.0001753,"INCLINATION":0.0283,"RA_OF_ASC_NODE":280.9183,"ARG_OF_PERICENTER":124.7546,"MEAN_ANOMALY":88.1882,"EPHEMERIS_TYPE":0,"CLASSIFICATION_TYPE":"U","NORAD_CAT_ID":41380,"ELEMENT_SET_NO":999,"REV_AT_EPOCH":3647,"BSTAR":0,"MEAN_MOTION_DOT":-3.44e-6,"MEAN_MOTION_DDOT":0},{"OBJECT_NAME":"EUTELSAT 65 WEST A","OBJECT_ID":"2016-014A","EPOCH":"2026-03-14T13:19:59.410272","MEAN_MOTION":1.00273963,"ECCENTRICITY":0.00022032,"INCLINATION":0.0599,"RA_OF_ASC_NODE":18.1531,"ARG_OF_PERICENTER":334.769,"MEAN_ANOMALY":314.0323,"EPHEMERIS_TYPE":0,"CLASSIFICATION_TYPE":"U","NORAD_CAT_ID":41382,"ELEMENT_SET_NO":999,"REV_AT_EPOCH":3658,"BSTAR":0,"MEAN_MOTION_DOT":-2.77e-6,"MEAN_MOTION_DDOT":0},{"OBJECT_NAME":"IRNSS-1F","OBJECT_ID":"2016-015A","EPOCH":"2026-03-14T05:14:27.745152","MEAN_MOTION":1.00276179,"ECCENTRICITY":0.00188902,"INCLINATION":5.1091,"RA_OF_ASC_NODE":99.0229,"ARG_OF_PERICENTER":188.9105,"MEAN_ANOMALY":354.9839,"EPHEMERIS_TYPE":0,"CLASSIFICATION_TYPE":"U","NORAD_CAT_ID":41384,"ELEMENT_SET_NO":999,"REV_AT_EPOCH":3671,"BSTAR":0,"MEAN_MOTION_DOT":1.59e-6,"MEAN_MOTION_DDOT":0},{"OBJECT_NAME":"BEIDOU-2 IGSO-6","OBJECT_ID":"2016-021A","EPOCH":"2026-03-11T21:02:52.128672","MEAN_MOTION":1.00277411,"ECCENTRICITY":0.0059566,"INCLINATION":60.0969,"RA_OF_ASC_NODE":39.005,"ARG_OF_PERICENTER":233.2714,"MEAN_ANOMALY":308.7278,"EPHEMERIS_TYPE":0,"CLASSIFICATION_TYPE":"U","NORAD_CAT_ID":41434,"ELEMENT_SET_NO":999,"REV_AT_EPOCH":3650,"BSTAR":0,"MEAN_MOTION_DOT":-1.31e-6,"MEAN_MOTION_DDOT":0},{"OBJECT_NAME":"IRNSS-1G","OBJECT_ID":"2016-027A","EPOCH":"2026-03-14T12:32:48.933312","MEAN_MOTION":1.00263713,"ECCENTRICITY":0.0005601,"INCLINATION":4.9605,"RA_OF_ASC_NODE":99.751,"ARG_OF_PERICENTER":315.9023,"MEAN_ANOMALY":74.0094,"EPHEMERIS_TYPE":0,"CLASSIFICATION_TYPE":"U","NORAD_CAT_ID":41469,"ELEMENT_SET_NO":999,"REV_AT_EPOCH":3623,"BSTAR":0,"MEAN_MOTION_DOT":-3.35e-6,"MEAN_MOTION_DDOT":0},{"OBJECT_NAME":"JCSAT-2B","OBJECT_ID":"2016-028A","EPOCH":"2026-03-14T12:39:55.750176","MEAN_MOTION":1.00272426,"ECCENTRICITY":8.98e-5,"INCLINATION":0.0171,"RA_OF_ASC_NODE":164.2804,"ARG_OF_PERICENTER":194.9019,"MEAN_ANOMALY":156.9468,"EPHEMERIS_TYPE":0,"CLASSIFICATION_TYPE":"U","NORAD_CAT_ID":41471,"ELEMENT_SET_NO":999,"REV_AT_EPOCH":3618,"BSTAR":0,"MEAN_MOTION_DOT":-1.66e-6,"MEAN_MOTION_DDOT":0},{"OBJECT_NAME":"THAICOM 8","OBJECT_ID":"2016-031A","EPOCH":"2026-03-14T14:01:02.972352","MEAN_MOTION":1.00271285,"ECCENTRICITY":0.00041016,"INCLINATION":0.0629,"RA_OF_ASC_NODE":33.8978,"ARG_OF_PERICENTER":329.6267,"MEAN_ANOMALY":97.4716,"EPHEMERIS_TYPE":0,"CLASSIFICATION_TYPE":"U","NORAD_CAT_ID":41552,"ELEMENT_SET_NO":999,"REV_AT_EPOCH":3577,"BSTAR":0,"MEAN_MOTION_DOT":-1.22e-6,"MEAN_MOTION_DDOT":0},{"OBJECT_NAME":"INTELSAT 31 (IS-31)","OBJECT_ID":"2016-035A","EPOCH":"2026-03-13T11:31:13.544832","MEAN_MOTION":1.00274362,"ECCENTRICITY":0.00015557,"INCLINATION":0.0385,"RA_OF_ASC_NODE":250.9517,"ARG_OF_PERICENTER":346.8834,"MEAN_ANOMALY":11.0308,"EPHEMERIS_TYPE":0,"CLASSIFICATION_TYPE":"U","NORAD_CAT_ID":41581,"ELEMENT_SET_NO":999,"REV_AT_EPOCH":3572,"BSTAR":0,"MEAN_MOTION_DOT":-1.51e-6,"MEAN_MOTION_DDOT":0},{"OBJECT_NAME":"BEIDOU-2 G7","OBJECT_ID":"2016-037A","EPOCH":"2026-03-14T14:10:09.599232","MEAN_MOTION":1.00275491,"ECCENTRICITY":0.00075949,"INCLINATION":1.4849,"RA_OF_ASC_NODE":68.3177,"ARG_OF_PERICENTER":346.5204,"MEAN_ANOMALY":80.448,"EPHEMERIS_TYPE":0,"CLASSIFICATION_TYPE":"U","NORAD_CAT_ID":41586,"ELEMENT_SET_NO":999,"REV_AT_EPOCH":594,"BSTAR":0,"MEAN_MOTION_DOT":-3.53e-6,"MEAN_MOTION_DDOT":0}]
